NORAD_CAT_ID,DATE,MEAN_MOTION,ECCENTRICITY,BSTAR,A_KM,HP_KM,HA_KM
25544,2024-02-24,15.49319938,0.0005698,0.0012541,6796.851292164664,414.8414462983892,422.5871380309409
25544,2024-02-25,15.49345369,0.0005772,0.00046093,6796.776916151182,414.71681651517974,422.56301578718467
25544,2024-02-26,15.49390605,0.0005776,0.00044062,6796.644623065243,414.58188113096094,422.4333649995251
25544,2024-02-27,15.49439104,0.0005896,0.00042201,6796.502794457125,414.35857640951326,422.37301250473774
25544,2024-02-28,15.49465684,0.0005676,0.00035623,6796.425068067253,414.43041719861867,422.145718935888
25544,2024-02-29,15.49509251,0.0006182,0.00034409,6796.297672360807,413.95920113975353,422.36214358186044
25544,2024-03-01,15.49529377,0.000556,0.00031417,6796.238823274074,414.3231144883339,421.88053205981487
25544,2024-03-02,15.49550519,0.0005732,0.00027544,6796.1770047418895,414.1444360827718,421.9355734010078
25544,2024-03-03,15.49586312,0.0006077,0.00041935,6796.07235035849,413.8053771911782,422.06532352580325
25544,2024-03-04,15.49612634,0.000582,0.0002783,6795.995390599249,413.9031212819209,421.8136599165782
25544,2024-03-05,15.4964807,0.0005857,0.00029788,6795.891786942328,413.7744331227159,421.7351407619399
25544,2024-03-06,15.49708792,0.0006183,0.00056044,6795.714264198215,413.3754740686618,421.7790543277679
25544,2024-03-07,15.49716982,0.0005893,0.00030772,6795.6903213538135,413.54862104744007,421.55802166018657
25544,2024-03-08,15.49745173,0.0006143,0.00022858,6795.60790871376,413.2963667754375,421.6454506520831
25544,2024-03-09,15.49771431,0.0006205,0.00024615,6795.531149189618,413.17752211154584,421.6107762676902
25544,2024-03-10,15.49800053,0.0006182,0.0002449,6795.44748149719,413.1095358641287,421.5114271302509
25544,2024-03-11,15.49837074,0.0006386,0.00030084,6795.339265708144,412.8627620530624,421.5417693632262
25544,2024-03-12,15.4986829,0.0005801,0.00030959,6795.24802181602,413.169098438565,421.05294519347626
25544,2024-03-13,15.49892078,0.0005991,0.00020518,6795.17849191101,412.97050047650646,421.1124833455142
25544,2024-03-14,15.48890645,0.0002465,-0.007906,6798.107118249923,418.2943848452742,421.64585165457174
25544,2024-03-15,15.48997533,0.0004705,0.00012839,6797.794380746986,416.45901849084385,422.8557430031278
25544,2024-03-16,15.49026824,0.0004579,0.00026957,6797.7086861592,416.45901535180747,422.68435696659253
25544,2024-03-17,15.49048727,0.0004538,0.00024276,6797.644607880432,416.4228367573769,422.59237900348853
25544,2024-03-18,15.49065551,0.0004423,0.000251,6797.595389485587,416.45181304481775,422.46496592635594
25544,2024-03-19,15.49111491,0.0005039,-3.8758e-05,6797.460997146271,415.89875654981006,422.7492377427334
25544,2024-03-20,15.4917961,0.0004366,0.00042212,6797.261734845931,416.157050372497,422.09241931936504
25544,2024-03-21,15.49218837,0.0004647,0.00040314,6797.146994304894,415.85136009664075,422.1686285131482
25544,2024-03-22,15.4927558,0.0004787,0.00044999,6796.98102733243,415.59031251464603,422.0977421502139
25544,2024-03-23,15.49351596,0.0004897,0.00060584,6796.758704851989,415.2933321142227,421.950077589755
25544,2024-03-24,15.494183,0.000445,0.00061923,6796.563631967443,415.402161151218,421.45110278366883
25544,2024-03-25,15.49500208,0.0004687,0.00074707,6796.324114805389,415.0016776927805,421.3725519179998
25544,2024-03-26,15.49563839,0.0004767,0.00061573,6796.138058209488,414.76133919713993,421.24077722183756
25544,2024-03-27,15.49605936,0.0005077,0.00030367,6796.0149738766395,414.4276370744028,421.32831067887673
25544,2024-03-28,15.49689875,0.0004927,0.0005896,6795.7695674203915,414.284291754524,420.9808430862595
25544,2024-03-29,15.49720105,0.0004546,0.00041069,6795.6811915555,414.45487488581966,420.6335082251817
25544,2024-03-30,15.49778798,0.0004304,0.00048154,6795.509613764604,414.44782642684004,420.297401102368
25544,2024-03-31,15.49802212,0.0004756,0.00031237,6795.441170423253,414.0722586026004,420.5360822439061
25544,2024-04-01,15.4983735,0.0004628,0.00031371,6795.338458950931,414.05657631212944,420.34634158973404
25544,2024-04-02,15.49870092,0.0004571,0.00029763,6795.242754691,413.99964922783147,420.2118601541697
25544,2024-04-03,15.4989764,0.0004432,0.00028196,6795.162235007155,414.01361910460037,420.03685090971067
25544,2024-04-04,15.49922952,0.000472,0.00026216,6795.088253000747,413.74397134533046,420.1585346561633
25544,2024-04-05,15.4994074,0.0004704,0.00022841,6795.036263373907,413.70287831561654,420.0956484321978
25544,2024-04-06,15.49960977,0.0004792,0.00021418,6794.977117175975,413.5839641414241,420.0962702105262
25544,2024-04-07,15.4999058,0.0004744,0.00022775,6794.89059951129,413.5301034108825,419.97709561169904
25544,2024-04-08,15.50015863,0.0004729,0.00021384,6794.816709649828,413.46644082783496,419.89297847182297
25544,2024-04-09,15.50042696,0.0004675,0.00025052,6794.738292092563,413.4247519410101,419.77783224411723
25544,2024-04-10,15.5006942,0.0004668,0.00022725,6794.660195328835,413.35144794965527,419.69494270801533
25544,2024-04-11,15.50099341,0.000456,0.0002169,6794.572758488979,413.3374333111087,419.53408366685017
25544,2024-04-12,15.50131378,0.0004725,0.0002488,6794.47914127246,413.1317498782091,419.55253266671207
25544,2024-04-13,15.50166004,0.0004777,0.00026049,6794.377962211636,412.9952878590875,419.4866365641856
25544,2024-04-14,15.50200171,0.0004992,0.00030182,6794.278128065938,412.74942442440806,419.5328317074682
25544,2024-04-15,15.50229346,0.0004721,0.00028324,6794.192883179795,412.84834471964587,419.2634216399447
25544,2024-04-16,15.50297692,0.0004703,0.00050543,6793.993197093195,412.66098209260235,419.0514120937878
25544,2024-04-17,15.50347276,0.0004912,0.00044221,6793.848337009435,412.37419870629674,419.0484753125738
25544,2024-04-18,15.50400316,0.0004832,0.00045334,6793.693388739319,412.27367609388057,418.83910138475767
25544,2024-04-19,15.50462431,0.0004773,0.00048771,6793.511940471971,412.13239722278377,418.61748372115835
25544,2024-04-20,15.50546243,0.0004705,0.00068034,6793.26713085304,411.93389866797315,418.32636303810705
25544,2024-04-21,15.50603416,0.000477,0.00058509,6793.100144743218,411.72283597417663,418.20345351226115
25544,2024-04-22,15.50673026,0.000476,0.00059522,6792.896847537824,411.5264286383963,417.9932664372518
25544,2024-04-23,15.50757217,0.0004658,0.00063236,6792.650986592336,411.34996976278217,417.67800342189093
25544,2024-04-24,15.508411,0.0004913,0.00070738,6792.4060472153105,410.931938124314,417.60615630630764
25544,2024-04-25,15.50926567,0.0004566,0.0010654,6792.156505248176,410.91820658787947,417.1208039084713
25544,2024-04-26,15.50607525,0.0003808,0.00067739,6793.0881439154255,412.364335950223,417.5379518806294
25544,2024-04-27,15.50662375,0.0003603,0.00051116,6792.927952981392,412.3434610399336,417.23844492285207
25544,2024-04-28,15.50715265,0.0003603,0.00037215,6792.773495224647,412.1890589343184,417.08393151497785
25544,2024-04-29,15.50771109,0.0003387,0.00043122,6792.610420258231,412.17276310888974,416.7740774075719
25544,2024-04-30,15.50784137,0.0003539,0.00026311,6792.572377459818,412.03148609543496,416.8392688242011
25544,2024-05-01,15.50801625,0.000373,0.00025398,6792.521311943299,411.85070149394505,416.91792239265396
25544,2024-05-02,15.50829152,0.0003641,0.00023848,6792.4409341715955,411.83080642746427,416.77706191572815
25544,2024-05-03,15.50870272,0.0003705,0.00025706,6792.320869796332,411.66731491407245,416.70042467859184
25544,2024-05-04,15.50905169,0.0003752,0.00028945,6792.218979831233,411.5335392700008,416.63042039246557
25544,2024-05-05,15.50923016,0.0003586,0.00019268,6792.166872811361,411.5942017707712,416.4655438519512
25544,2024-05-06,15.50957674,0.000358,0.0002731,6792.065686385211,411.4971268694853,416.360245900938
25544,2024-05-07,15.51005321,0.0003631,0.00034104,6791.926583827513,411.32343528492584,416.2557323701012
25544,2024-05-08,15.51025615,0.0003349,0.00028217,6791.8673388748675,411.455742503078,416.0049352466567
25544,2024-05-09,15.51061136,0.0003532,0.00028208,6791.763644341714,411.22779342253216,416.0254952608957
25544,2024-05-10,15.51091733,0.0003508,0.00027646,6791.674327348177,411.154807994144,415.91984670221154
25544,2024-05-11,15.51218265,0.0003185,0.0010116,6791.304993627804,411.0049629873338,415.33102426827554
25544,2024-05-12,15.51257862,0.0003298,0.00051995,6791.18942442663,410.8126901544538,415.2921586988059
25544,2024-05-13,15.51313649,0.0002651,0.00053771,6791.026610863037,411.08930970849724,414.6899120175767
25544,2024-05-14,15.513276,0.0003221,0.00037535,6790.985896593853,410.66152003656043,415.0362731511459
25544,2024-05-15,15.51374613,0.0003237,0.00037494,6790.848699457066,410.51350173305127,414.90989718108085
25544,2024-05-16,15.51411678,0.0003516,0.00035836,6790.7405382630295,410.21591388977686,414.99116263628275
25544,2024-05-17,15.5149272,0.0003368,0.00046629,6790.504060631378,410.0800188637577,414.6541023989985
25544,2024-05-18,15.51537721,0.000356,0.00044415,6790.372758226761,409.8183855248326,414.6531309286902
25544,2024-05-19,15.51603681,0.0003296,0.000481,6790.180313826145,409.8052703947078,414.2813572575815
25544,2024-05-20,15.51657978,0.0003259,0.00046751,6790.021907538164,409.6720393984979,414.0977756778302
25544,2024-05-21,15.51693673,0.0003288,0.00040111,6789.917775833364,409.54825086867095,414.0133007980585
25544,2024-05-22,15.51741327,0.0002861,0.00039923,6789.778762802346,409.69920709830876,413.584318506385
25544,2024-05-23,15.5178217,0.0003336,0.0003965,6789.6596240229155,409.25759357234165,413.78765447348997
25544,2024-05-24,15.51094888,0.000375,-0.0010684,6791.66511762158,410.9812432024719,416.0749920406888
25544,2024-05-25,15.50453728,0.0005459,5.2028e-05,6793.537362655616,411.6917706093427,419.10895470189007
25544,2024-05-26,15.50505935,0.0005474,0.00030841,6793.384865251397,411.5291663761591,418.9665641266365
25544,2024-05-27,15.50542957,0.0005541,0.00031731,6793.2767286384715,411.3755740031329,418.9038832738106
